IRIDIUM 126             
1 42809U 17039G   25347.63415442  .00000291  00000+0  97015-4 0  9990
2 42809  86.3966  71.2120 0001866  99.0008 261.1399 14.34216399443355
IRIDIUM 124             
1 42810U 17039H   25347.59239672  .00000541  00000+0  15493-3 0  9993
2 42810  86.4493   7.9509 0002297  97.6019 262.5443 14.43277894448341
IRIDIUM 128             
1 42811U 17039J   25347.62489287  .00000383  00000+0  12979-3 0  9997
2 42811  86.3965 102.7499 0002325  98.6448 261.5012 14.34217380443380
IRIDIUM 121             
1 42812U 17039K   25347.65318286 -.00000119  00000+0 -49489-4 0  9997
2 42812  86.3963  71.2304 0002108  95.1956 264.9480 14.34217240443234
IRIDIUM 133             
1 42955U 17061A   25347.58684875  .00000451  00000+0  15409-3 0  9993
2 42955  86.3967 102.8789 0002084  97.5814 262.5619 14.34217515428175
IRIDIUM 100             
1 42956U 17061B   25347.58048977  .00000068  00000+0  17386-4 0  9992
2 42956  86.3962 102.8043 0002003  97.6697 262.4726 14.34216389428171
IRIDIUM 122             
1 42957U 17061C   25347.68831720  .00000130  00000+0  39187-4 0  9993
2 42957  86.3965 102.7592 0001927  99.0639 261.0775 14.34218141428198
IRIDIUM 129             
1 42958U 17061D   25347.36484436  .00000434  00000+0  14795-3 0  9991
2 42958  86.3964 102.9592 0001805  86.8493 273.2910 14.34219221428160
